[
    {
        "Altitude(m)": 571150.0145564189,
        "Argument of Periapsis(deg)": 0.006622991110713501,
        "Eccentricity": 0.0,
        "Inclination(deg)": 53.0,
        "Latitude(deg)": -51.35880567770335,
        "Longitude(deg)": 23.850361981799992,
        "Mean Anomaly(deg)": -102.63570713242238,
        "RAAN(deg)": 234.99014336852798,
        "Satellite Name": "Starlink Shell 1 1049",
        "Satellite Number": 1049,
        "Semi-Major Axis(m)": 6931778.249405717,
        "Time(s)": 190
    },
    {
        "Altitude(m)": 571216.5589110755,
        "Argument of Periapsis(deg)": 0.0069715695902247375,
        "Eccentricity": 0.0,
        "Inclination(deg)": 53.0,
        "Latitude(deg)": -51.52867628611286,
        "Longitude(deg)": 24.771081227179454,
        "Mean Anomaly(deg)": -102.00887592886575,
        "RAAN(deg)": 234.98962459845052,
        "Satellite Name": "Starlink Shell 1 1049",
        "Satellite Number": 1049,
        "Semi-Major Axis(m)": 6931778.249405717,
        "Time(s)": 200
    },
    {
        "Altitude(m)": 571279.8730918892,
        "Argument of Periapsis(deg)": 0.007320148069735974,
        "Eccentricity": 0.0,
        "Inclination(deg)": 53.0,
        "Latitude(deg)": -51.690598599102266,
        "Longitude(deg)": 25.698805345493888,
        "Mean Anomaly(deg)": -101.38204472530909,
        "RAAN(deg)": 234.98910582837308,
        "Satellite Name": "Starlink Shell 1 1049",
        "Satellite Number": 1049,
        "Semi-Major Axis(m)": 6931778.249405717,
        "Time(s)": 210
    },
    {
        "Altitude(m)": 571339.9318521693,
        "Argument of Periapsis(deg)": 0.007668726549247212,
        "Eccentricity": 0.0,
        "Inclination(deg)": 53.0,
        "Latitude(deg)": -51.8444704662749,
        "Longitude(deg)": 26.633283224171333,
        "Mean Anomaly(deg)": -100.75521352175227,
        "RAAN(deg)": 234.9885870582956,
        "Satellite Name": "Starlink Shell 1 1049",
        "Satellite Number": 1049,
        "Semi-Major Axis(m)": 6931778.249405717,
        "Time(s)": 220
    },
    {
        "Altitude(m)": 571396.7112371705,
        "Argument of Periapsis(deg)": 0.00801730502875845,
        "Eccentricity": 0.0,
        "Inclination(deg)": 53.0,
        "Latitude(deg)": -51.990193216324094,
        "Longitude(deg)": 27.574247799063745,
        "Mean Anomaly(deg)": -100.12838231819556,
        "RAAN(deg)": 234.98806828821813,
        "Satellite Name": "Starlink Shell 1 1049",
        "Satellite Number": 1049,
        "Semi-Major Axis(m)": 6931778.249405717,
        "Time(s)": 230
    },
    {
        "Altitude(m)": 571450.1885944534,
        "Argument of Periapsis(deg)": 0.008365883508269684,
        "Eccentricity": 0.0,
        "Inclination(deg)": 53.0,
        "Latitude(deg)": -52.12767193714183,
        "Longitude(deg)": 28.521416798829158,
        "Mean Anomaly(deg)": -99.5015511146389,
        "RAAN(deg)": 234.98754951814064,
        "Satellite Name": "Starlink Shell 1 1049",
        "Satellite Number": 1049,
        "Semi-Major Axis(m)": 6931778.249405717,
        "Time(s)": 240
    },
    {
        "Altitude(m)": 571500.3425837208,
        "Argument of Periapsis(deg)": 0.008714461987780921,
        "Eccentricity": 0.0,
        "Inclination(deg)": 53.0,
        "Latitude(deg)": -52.25681575299223,
        "Longitude(deg)": 29.47449205933675,
        "Mean Anomaly(deg)": -98.87471991108211,
        "RAAN(deg)": 234.98703074806315,
        "Satellite Name": "Starlink Shell 1 1049",
        "Satellite Number": 1049,
        "Semi-Major Axis(m)": 6931778.249405717,
        "Time(s)": 250
    },
    {
        "Altitude(m)": 571547.15318606,
        "Argument of Periapsis(deg)": 0.009063040467292158,
        "Eccentricity": 0.0,
        "Inclination(deg)": 53.0,
        "Latitude(deg)": -52.37753809706363,
        "Longitude(deg)": 30.433160435546025,
        "Mean Anomaly(deg)": -98.2478887075254,
        "RAAN(deg)": 234.9865119779857,
        "Satellite Name": "Starlink Shell 1 1049",
        "Satellite Number": 1049,
        "Semi-Major Axis(m)": 6931778.249405717,
        "Time(s)": 260
    },
    {
        "Altitude(m)": 571590.6017125963,
        "Argument of Periapsis(deg)": 0.009411618946803396,
        "Eccentricity": 0.0,
        "Inclination(deg)": 53.0,
        "Latitude(deg)": -52.4897569776046,
        "Longitude(deg)": 31.397094798337257,
        "Mean Anomaly(deg)": -97.6210575039687,
        "RAAN(deg)": 234.98599320790822,
        "Satellite Name": "Starlink Shell 1 1049",
        "Satellite Number": 1049,
        "Semi-Major Axis(m)": 6931778.249405717,
        "Time(s)": 270
    },
    {
        "Altitude(m)": 571630.6708126338,
        "Argument of Periapsis(deg)": 0.009760197426314633,
        "Eccentricity": 0.0,
        "Inclination(deg)": 53.0,
        "Latitude(deg)": -52.59339523604194,
        "Longitude(deg)": 32.36595360482836,
        "Mean Anomaly(deg)": -96.99422630041202,
        "RAAN(deg)": 234.98547443783073,
        "Satellite Name": "Starlink Shell 1 1049",
        "Satellite Number": 1049,
        "Semi-Major Axis(m)": 6931778.249405717,
        "Time(s)": 280
    },
    {
        "Altitude(m)": 571667.3444811311,
        "Argument of Periapsis(deg)": 0.01010877590582587,
        "Eccentricity": 0.0,
        "Inclination(deg)": 53.0,
        "Latitude(deg)": -52.68838079507811,
        "Longitude(deg)": 33.33938206525929,
        "Mean Anomaly(deg)": -96.36739509685522,
        "RAAN(deg)": 234.98495566775333,
        "Satellite Name": "Starlink Shell 1 1049",
        "Satellite Number": 1049,
        "Semi-Major Axis(m)": 6931778.249405717,
        "Time(s)": 290
    },
    {
        "Altitude(m)": 571700.6080656409,
        "Argument of Periapsis(deg)": 0.010457354385337106,
        "Eccentricity": 0.0,
        "Inclination(deg)": 53.0,
        "Latitude(deg)": -52.7746468951838,
        "Longitude(deg)": 34.31701339333449,
        "Mean Anomaly(deg)": -95.74056389329853,
        "RAAN(deg)": 234.9844368976758,
        "Satellite Name": "Starlink Shell 1 1049",
        "Satellite Number": 1049,
        "Semi-Major Axis(m)": 6931778.249405717,
        "Time(s)": 300
    },
    {
        "Altitude(m)": 571730.4482726582,
        "Argument of Periapsis(deg)": 0.010805932864848343,
        "Eccentricity": 0.0,
        "Inclination(deg)": 53.0,
        "Latitude(deg)": -52.852132317682674,
        "Longitude(deg)": 35.2984686239549,
        "Mean Anomaly(deg)": -95.11373268974187,
        "RAAN(deg)": 234.98391812759832,
        "Satellite Name": "Starlink Shell 1 1049",
        "Satellite Number": 1049,
        "Semi-Major Axis(m)": 6931778.249405717,
        "Time(s)": 310
    },
    {
        "Altitude(m)": 571756.8531733727,
        "Argument of Periapsis(deg)": 0.01115451134435958,
        "Eccentricity": 0.0,
        "Inclination(deg)": 53.0,
        "Latitude(deg)": -52.920781592757486,
        "Longitude(deg)": 36.28335802066568,
        "Mean Anomaly(deg)": -94.48690148618512,
        "RAAN(deg)": 234.98339935752085,
        "Satellite Name": "Starlink Shell 1 1049",
        "Satellite Number": 1049,
        "Semi-Major Axis(m)": 6931778.249405717,
        "Time(s)": 320
    },
    {
        "Altitude(m)": 571779.8122088311,
        "Argument of Periapsis(deg)": 0.011503089823870818,
        "Eccentricity": 0.0,
        "Inclination(deg)": 53.0,
        "Latitude(deg)": -52.98054519077652,
        "Longitude(deg)": 37.271282555528906,
        "Mean Anomaly(deg)": -93.86007028262834,
        "RAAN(deg)": 234.98288058744336,
        "Satellite Name": "Starlink Shell 1 1049",
        "Satellite Number": 1049,
        "Semi-Major Axis(m)": 6931778.249405717,
        "Time(s)": 330
    },
    {
        "Altitude(m)": 571799.3161944959,
        "Argument of Periapsis(deg)": 0.011851668303382053,
        "Eccentricity": 0.0,
        "Inclination(deg)": 53.0,
        "Latitude(deg)": -53.0313796954351,
        "Longitude(deg)": 38.261833943247794,
        "Mean Anomaly(deg)": -93.23323907907168,
        "RAAN(deg)": 234.98236181736593,
        "Satellite Name": "Starlink Shell 1 1049",
        "Satellite Number": 1049,
        "Semi-Major Axis(m)": 6931778.249405717,
        "Time(s)": 340
    },
    {
        "Altitude(m)": 571815.3573242472,
        "Argument of Periapsis(deg)": 0.012200246782893292,
        "Eccentricity": 0.0,
        "Inclination(deg)": 53.0,
        "Latitude(deg)": -53.073247957316184,
        "Longitude(deg)": 39.25459624914347,
        "Mean Anomaly(deg)": -92.60640787551507,
        "RAAN(deg)": 234.98184304728846,
        "Satellite Name": "Starlink Shell 1 1049",
        "Satellite Number": 1049,
        "Semi-Major Axis(m)": 6931778.249405717,
        "Time(s)": 350
    },
    {
        "Altitude(m)": 571827.9291737291,
        "Argument of Periapsis(deg)": 0.012548825262404526,
        "Eccentricity": 0.0,
        "Inclination(deg)": 53.0,
        "Latitude(deg)": -53.10611922661816,
        "Longitude(deg)": 40.24914755119289,
        "Mean Anomaly(deg)": -91.97957667195828,
        "RAAN(deg)": 234.98132427721097,
        "Satellite Name": "Starlink Shell 1 1049",
        "Satellite Number": 1049,
        "Semi-Major Axis(m)": 6931778.249405717,
        "Time(s)": 360
    },
    {
        "Altitude(m)": 571837.0267031523,
        "Argument of Periapsis(deg)": 0.012897403741915765,
        "Eccentricity": 0.0,
        "Inclination(deg)": 53.0,
        "Latitude(deg)": -53.12996926395263,
        "Longitude(deg)": 41.24506013563652,
        "Mean Anomaly(deg)": -91.3527454684015,
        "RAAN(deg)": 234.98080550713348,
        "Satellite Name": "Starlink Shell 1 1049",
        "Satellite Number": 1049,
        "Semi-Major Axis(m)": 6931778.249405717,
        "Time(s)": 370
    }
]